#aV2024  3 10  0  0  0.00000000     288 DD+AD WGS84 FIT  NGA
## 2305      0.00000000   300.00000000 60379 0.0000000000000
+   32     1  2  3  4  5  6  7  8  9 10 11 12 13 14 15 16 17
+         18 19 20 21 22 23 24 25 26 27 28 29 30 31 32  0  0
+          0  0  0  0  0  0  0  0  0  0  0  0  0  0  0  0  0
+          0  0  0  0  0  0  0  0  0  0  0  0  0  0  0  0  0
+          0  0  0  0  0  0  0  0  0  0  0  0  0  0  0  0  0
++         2  2  2  2  2  2  2  2  2  2  2  2  2  2  2  2  2
++         2  2  2  2  2  2  2  2  2  2  2  2  2  2  2  0  0
++         0  0  0  0  0  0  0  0  0  0  0  0  0  0  0  0  0
++         0  0  0  0  0  0  0  0  0  0  0  0  0  0  0  0  0
++         0  0  0  0  0  0  0  0  0  0  0  0  0  0  0  0  0
%c cc cc ccc ccc cccc cccc cccc cccc ccccc ccccc ccccc ccccc
%c cc cc ccc ccc cccc cccc cccc cccc ccccc ccccc ccccc ccccc
%f  0.0000000  0.000000000  0.00000000000  0.000000000000000
%f  0.0000000  0.000000000  0.00000000000  0.000000000000000
%i    0    0    0    0      0      0      0      0         0
%i    0    0    0    0      0      0      0      0         0
/*      NGA, ST. LOUIS,MO.                                  
/*   EPHEMERIS COMPUTED FROM 2 DAYS OF DATA                 
/*   EPOCHA v9 SMOOTHER                                     
/*   G2296 IERS2010 SATIGS SATAPC                           
*  2024  3 10 18 55  0.00000000
P  1  11343.752929 -16814.780772  16624.033737    173.287290                    
V  1    929.671247  21867.721236  21373.180219      0.019404                    
P  2  14293.999077  -7476.741684  21545.966960   -472.440455                    
V  2   2715.896382  26116.579631   7691.557811      0.061385                    
P  3  23472.834866 -12182.316491   1467.616495    244.044920                    
V  3   -681.610783   2937.257187  32246.064386      0.229826                    
P  4  19222.200810  -2746.343811 -18167.136636    311.699224                    
V  4  18706.750953  13525.090516  17602.264909      0.091466                    
P  5 -22527.679180   2941.130147 -14004.820195   -164.892770                    
V  5  13731.700590 -10906.595641 -24593.724620     -0.013930                    
P  6  -5984.558379 -23864.237736  -9790.186192    373.566672                    
V  6   2024.036148 -12494.025602  29126.254411     -0.161815                    
P  7   5749.125938 -24291.781245  -7843.115413    -81.203159                    
V  7   3343.603644  10797.296869 -29630.133852     -0.088120                    
P  8  23840.936311   3671.638509  11482.994620     45.229484                    
V  8  11742.354290   8965.710830 -26584.494223      0.277567                    
P  9   7062.681772 -13592.250657 -21777.657926    120.004221                    
V  9  24075.382288  13234.066474   -509.619533      0.130882                    
P 10    711.740040  15983.490671  21345.141142      0.181881                    
V 10 -23478.965495  12582.022312  -9034.492937     -0.014593                    
P 11 -12073.623444 -14627.101721 -18589.070974   -602.495196                    
V 11   2623.752593 -23514.612856  16730.940448     -0.118879                    
P 12 -24372.681430  10220.983029   1975.366809   -485.902195                    
V 12   1349.540004  -3786.564083  31706.364976     -0.036041                    
P 13 -22506.306976 -13251.253038   5246.497781    632.954474                    
V 13  -3982.266224  -6038.524260 -30912.994221      0.033657                    
P 14   3593.440327 -17775.925324  19364.621377    347.091171                    
V 14  22446.910153 -10299.787658 -13829.057215      0.097833                    
P 15 -24117.703522  -1014.841239  10810.827109    136.257809                    
V 15 -12262.485250  -8241.121519 -26711.184581      0.039852                    
P 16  20290.469066   3914.722624 -17271.731152   -344.216245                    
V 16 -18607.374041  10053.503431 -19524.309282      0.087587                    
P 17  -5639.720210 -18816.256016  18225.971140    714.176778                    
V 17  19331.384486  11265.633701  18183.750060     -0.014068                    
P 18  -5592.475870  24786.731361  -7379.382610   -572.831331                    
V 18  -2165.875330  -9475.870983 -30311.907188     -0.076432                    
P 19 -14517.340552 -19706.309707  10571.839177    452.111782                    
V 19  12113.926797   6426.935193  27760.968468      0.053054                    
P 20 -14989.802604  -6752.056134 -20768.863260    384.429772                    
V 20  19842.589339 -17702.902089  -8694.569031     -0.014162                    
P 21  15397.848028   -722.143824  22102.347640    131.874719                    
V 21   2684.633446  26815.048399    -30.105698     -0.014509                    
P 22  -4121.024307 -14984.009167  21983.352382     18.071711                    
V 22  24500.114711 -11064.335135  -2721.054720     -0.059738                    
P 23 -11863.158919  18700.393767  14544.366934    174.126929                    
V 23 -16727.750494   8041.240799 -24203.796807      0.085367                    
P 24 -14991.124327   5219.176526  20841.939005   -444.359804                    
V 24  -3234.109563 -27395.580058   4856.313088     -0.054877                    
P 25 -18840.046425  17183.326853  -7252.471225    490.941712                    
V 25  -9200.787175   1819.900652  29868.293632      0.010214                    
P 26  11370.329738  11417.325285 -21289.760664    181.078801                    
V 26 -22028.249901  15222.973377  -3259.170591     -0.044521                    
P 27  23338.009175  13156.097016    364.409494    -10.757328                    
V 27   -500.809121   2458.315278 -31519.912660     -0.029041                    
P 28   5612.320853  24992.294829  -7050.535382   -159.658792                    
V 28  -2380.777677   8996.783748  30067.902419     -0.137489                    
P 29  -9874.417294  11357.538477 -21940.187354   -605.150790                    
V 29 -22714.249589 -15842.890096   1925.687427      0.009678                    
P 30  -1451.038597 -26287.262601   2253.470746   -421.579565                    
V 30   3834.921710  -2706.195070 -31193.551394      0.052383                    
P 31  10629.513781  18535.995068 -15726.770589   -227.958866                    
V 31  -2811.442523  19697.313574  22000.489563     -0.000611                    
P 32  10091.556795  18777.357262  16177.660624   -615.322570                    
V 32 -18275.973117  -8491.999743  21329.486173     -0.013911                    
EOF
